IONOSFERA-M 4           
1 64877U 25155B   26180.52827466  .00000039  00000+0  37239-4 0  9996
2 64877  98.6029 142.0402 0001452 113.6436 246.4894 14.21490825 48158
MICROCARB               
1 64899U 25156A   26179.70222452  .00000491  00000+0  84954-4 0  9991
2 64899  97.9920 256.6424 0015548 228.9563 131.0302 14.72534706 49665
CO3D 3                  
1 64900U 25156B   26180.49649527  .00004572  00000+0  21416-3 0  9995
2 64900  97.4337 259.0123 0001830 115.9180 244.2244 15.20210171 51405
CO3D 4                  
1 64901U 25156C   26180.49663447  .00002421  00000+0  11493-3 0  9998
2 64901  97.4336 259.0130 0000508 185.5413 174.5816 15.20200376 51402
CO3D 2                  
1 64902U 25156D   26180.46330163  .00004081  00000+0  19149-3 0  9992
2 64902  97.4336 258.8784 0001471  98.0211 262.1191 15.20207627 51393
CO3D 1                  
1 64903U 25156E   26180.46345471  .00004281  00000+0  20083-3 0  9992
2 64903  97.4337 258.8785 0001343 105.3014 254.8369 15.20193234 51390
PRSC-S1                 
1 65055U 25164A   26180.46225535  .00002986  00000+0  21015-3 0  9994
2 65055  41.1289 218.6747 0005053  75.8500 284.2875 15.06544474 50282
SENTINEL-6B             
1 66514U 25264A   26179.95337368 -.00000084  00000+0 -99039-4 0  9997
2 66514  66.0410 110.7405 0007924 268.9115  91.0993 12.80929912 28670
CAS500-3                
1 66655U 25274F   26180.38398552  .00001287  00000+0  14477-3 0  9991
2 66655  97.7444 108.1576 0006955  79.2781 280.9219 14.88349751 31962
CSG-3                   
1 67304U 26001A   26180.48593453  .00000337  00000+0  48934-4 0  9991
2 67304  97.8889   3.9097 0001468  95.7173 264.4208 14.82161927 26285
PRSC-E03                
1 68835U 26092A   26180.58150924  .00003009  00000+0  20570-3 0  9998
2 68835  38.0023  16.5909 0002885 133.8870 226.2131 15.06733823  9825
CAS500-2                
1 69013U 26100AK  26180.25996775  .00006271  00000+0  28781-3 0  9999
2 69013  97.3897  77.8943 0009311 355.1104   5.0039 15.20728950  8649
