OBJECT_NAME,OBJECT_ID,EPOCH,MEAN_MOTION,ECCENTRICITY,INCLINATION,RA_OF_ASC_NODE,ARG_OF_PERICENTER,MEAN_ANOMALY,EPHEMERIS_TYPE,CLASSIFICATION_TYPE,NORAD_CAT_ID,ELEMENT_SET_NO,REV_AT_EPOCH,BSTAR,MEAN_MOTION_DOT,MEAN_MOTION_DDOT
IONOSFERA-M 4,2025-155B,2026-06-29T12:40:42.930624,14.21490825,.0001452,98.6029,142.0402,113.6436,246.4894,0,U,64877,999,4815,.37239E-4,.39E-6,0
MICROCARB,2025-156A,2026-06-28T16:51:12.198528,14.72534706,.00155483,97.9920,256.6424,228.9563,131.0302,0,U,64899,999,4966,.84954317E-4,.491E-5,0
CO3D 3,2025-156B,2026-06-29T11:54:57.191328,15.20210171,.000183,97.4337,259.0123,115.9180,244.2244,0,U,64900,999,5140,.21416E-3,.4572E-4,0
CO3D 4,2025-156C,2026-06-29T11:55:09.218208,15.20200376,.0000508,97.4336,259.0130,185.5413,174.5816,0,U,64901,999,5140,.11493E-3,.2421E-4,0
CO3D 2,2025-156D,2026-06-29T11:07:09.260832,15.20207627,.0001471,97.4336,258.8784,98.0211,262.1191,0,U,64902,999,5139,.19149E-3,.4081E-4,0
CO3D 1,2025-156E,2026-06-29T11:07:22.486944,15.20193234,.0001343,97.4337,258.8785,105.3014,254.8369,0,U,64903,999,5139,.20083E-3,.4281E-4,0
PRSC-S1,2025-164A,2026-06-29T11:05:38.862240,15.06544474,.0005053,41.1289,218.6747,75.8500,284.2875,0,U,65055,999,5028,.21015E-3,.2986E-4,0
SENTINEL-6B,2025-264A,2026-06-28T22:52:51.485952,12.80929912,.00079246,66.0410,110.7405,268.9115,91.0993,0,U,66514,999,2867,-.99039295E-4,-.84E-6,0
CAS500-3,2025-274F,2026-06-29T09:12:56.348928,14.88349751,.0006955,97.7444,108.1576,79.2781,280.9219,0,U,66655,999,3196,.14477E-3,.1287E-4,0
CSG-3,2026-001A,2026-06-29T11:39:44.743392,14.82161927,.0001468,97.8889,3.9097,95.7173,264.4208,0,U,67304,999,2628,.48934E-4,.337E-5,0
PRSC-E03,2026-092A,2026-06-29T13:57:22.398336,15.06733823,.0002885,38.0023,16.5909,133.8870,226.2131,0,U,68835,999,982,.2057E-3,.3009E-4,0
CAS500-2,2026-100AK,2026-06-29T06:14:21.213600,15.20728950,.0009311,97.3897,77.8943,355.1104,5.0039,0,U,69013,999,864,.28781E-3,.6271E-4,0
